{
  "type": "FeatureCollection",
  "generator": "overpass-ide",
  "copyright": "The data included in this document is from www.openstreetmap.org. The data is made available under ODbL.",
  "timestamp": "2019-05-22T23:23:02Z",
  "features": [
    {
      "type": "Feature",
      "properties": {
        "@id": "node/1504623366",
        "addr:city": "Roma",
        "addr:country": "IT",
        "addr:housenumber": "46",
        "addr:street": "Via di San Giovanni in Laterano",
        "amenity": "fast_food",
        "cuisine": "pizza",
        "fax": "+39 06 70454900",
        "name": "Del Monte's",
        "operator": "Palmina D'Auria",
        "phone": "+39 06 70454900"
      },
      "geometry": {
        "type": "Point",
        "coordinates": [
          12.4955224,
          41.889621
        ]
      },
      "id": "node/1504623366"
    },
    {
      "type": "Feature",
      "properties": {
        "@id": "node/1915802155",
        "amenity": "fast_food",
        "cuisine": "italian",
        "drive_through": "no",
        "name": "Golosseum"
      },
      "geometry": {
        "type": "Point",
        "coordinates": [
          12.4964,
          41.8893609
        ]
      },
      "id": "node/1915802155"
    },
    {
      "type": "Feature",
      "properties": {
        "@id": "node/2309515077",
        "addr:city": "Roma",
        "addr:housenumber": "267",
        "addr:postcode": "00184",
        "addr:street": "Via Merulana",
        "amenity": "fast_food",
        "cuisine": "pizza",
        "name": "Pizza Rustica",
        "opening_hours": "Mo-Sa 10:30-19:00",
        "phone": "+39 06 4876543"
      },
      "geometry": {
        "type": "Point",
        "coordinates": [
          12.4995036,
          41.8959652
        ]
      },
      "id": "node/2309515077"
    },
    {
      "type": "Feature",
      "properties": {
        "@id": "node/2309515082",
        "addr:city": "Roma",
        "addr:housenumber": "271",
        "addr:postcode": "00184",
        "addr:street": "Via Merulana",
        "amenity": "fast_food",
        "cuisine": "kebab",
        "diet:vegan": "yes",
        "diet:vegetarian": "yes",
        "name": "Shawarma Station",
        "opening_hours": "Mo-Su 11:00-23:00",
        "phone": "+39 06 4881216"
      },
      "geometry": {
        "type": "Point",
        "coordinates": [
          12.4994166,
          41.8961125
        ]
      },
      "id": "node/2309515082"
    },
    {
      "type": "Feature",
      "properties": {
        "@id": "node/2434296146",
        "addr:city": "Roma",
        "addr:housenumber": "29",
        "addr:postcode": "00184",
        "addr:street": "Via San Martino ai Monti",
        "amenity": "fast_food",
        "cuisine": "kebab",
        "name": "Pizzeria Al Baraka",
        "operator": "Oualli Boualem",
        "phone": "+39 06 484674",
        "ref:vatin": "IT07153851006"
      },
      "geometry": {
        "type": "Point",
        "coordinates": [
          12.4991348,
          41.8958341
        ]
      },
      "id": "node/2434296146"
    },
    {
      "type": "Feature",
      "properties": {
        "@id": "node/2871137980",
        "addr:city": "Roma",
        "addr:housenumber": "5,7",
        "addr:postcode": "00184",
        "addr:street": "Piazza di San Martino ai Monti",
        "amenity": "fast_food",
        "cuisine": "italian_pizza",
        "diet:vegan": "no",
        "diet:vegetarian": "yes",
        "email": "zizzipizza@gmail.com",
        "name": "Zizzi Pizza",
        "opening_hours": "Mo-Su 11:00-22:30",
        "phone": "+39 366 410 73 76",
        "website": "https://www.zizzipizza.com"
      },
      "geometry": {
        "type": "Point",
        "coordinates": [
          12.4976178,
          41.8953501
        ]
      },
      "id": "node/2871137980"
    },
    {
      "type": "Feature",
      "properties": {
        "@id": "node/3826855160",
        "amenity": "fast_food",
        "name": "Mangio Bio",
        "organic": "only"
      },
      "geometry": {
        "type": "Point",
        "coordinates": [
          12.4981373,
          41.8888315
        ]
      },
      "id": "node/3826855160"
    },
    {
      "type": "Feature",
      "properties": {
        "@id": "node/4216565054",
        "addr:city": "Roma",
        "addr:housenumber": "118",
        "addr:postcode": "00184",
        "addr:street": "Via di San Giovanni in Laterano",
        "amenity": "fast_food",
        "cuisine": "pizza",
        "name": "Pizza Rustica",
        "opening_hours": "09:00-24:00",
        "takeaway": "yes",
        "wifi": "customers"
      },
      "geometry": {
        "type": "Point",
        "coordinates": [
          12.4976956,
          41.8889828
        ]
      },
      "id": "node/4216565054"
    },
    {
      "type": "Feature",
      "properties": {
        "@id": "node/4283666390",
        "addr:housenumber": "42",
        "addr:street": "Via Baccina",
        "amenity": "fast_food",
        "cuisine": "pasta;italian",
        "name": "Pasta Chef street food"
      },
      "geometry": {
        "type": "Point",
        "coordinates": [
          12.4896716,
          41.8947485
        ]
      },
      "id": "node/4283666390"
    },
    {
      "type": "Feature",
      "properties": {
        "@id": "node/4283669389",
        "addr:housenumber": "42",
        "addr:street": "Via Baccina",
        "amenity": "fast_food",
        "name": "Pasta chef street food"
      },
      "geometry": {
        "type": "Point",
        "coordinates": [
          12.4879372,
          41.8944085
        ]
      },
      "id": "node/4283669389"
    },
    {
      "type": "Feature",
      "properties": {
        "@id": "node/4352098389",
        "addr:housenumber": "15",
        "addr:street": "Via Frangipane",
        "amenity": "fast_food",
        "cuisine": "vegetarian;italian;lasagna",
        "internet_access": "wlan",
        "name": "LasaGnaM Colosseo",
        "opening_hours": "Mo-Fr 10:30-16:00; Sa-Su 10:00-16:00",
        "website": "https://lasagnam.it/"
      },
      "geometry": {
        "type": "Point",
        "coordinates": [
          12.489851,
          41.893174
        ]
      },
      "id": "node/4352098389"
    },
    {
      "type": "Feature",
      "properties": {
        "@id": "node/4411623690",
        "addr:city": "Roma",
        "addr:housenumber": "81",
        "addr:postcode": "00184",
        "addr:street": "Via Leonina",
        "amenity": "fast_food",
        "cuisine": "italian;mediterranean",
        "email": "voglia_fashion@yahoo.it",
        "name": "Ce Stamo a Pensa",
        "opening_hours": "Mo-Th 09:00-01:00; Fr 09:00-02:00; Sa 10:00-02:00; Su 10:00-01:00",
        "phone": "+39 06 69363154"
      },
      "geometry": {
        "type": "Point",
        "coordinates": [
          12.4914442,
          41.8946585
        ]
      },
      "id": "node/4411623690"
    },
    {
      "type": "Feature",
      "properties": {
        "@id": "node/4971065306",
        "addr:city": "Roma",
        "addr:housenumber": "54A",
        "addr:postcode": "00184",
        "addr:street": "Via degli Zingari",
        "amenity": "fast_food",
        "cuisine": "italian;street_food;italian_street_food;napoletanean",
        "description": "Sandwiches and other Italian street food, really nice and inexpensive",
        "email": "mauriziosanti@virgilio.it",
        "name": "Mizio's - cibo da strada",
        "opening_hours": "Mo-Fr 09:00-21:00, Sa-Su 09:00-02:00",
        "operator": "MRP Food Srl.",
        "outdoor_seating": "no",
        "ref:vatin": "IT13252651008",
        "smoking": "no",
        "start_date": "2016-11",
        "takeaway": "only",
        "url": "https://www.facebook.com/miziostreetfood/"
      },
      "geometry": {
        "type": "Point",
        "coordinates": [
          12.4918873,
          41.8951362
        ]
      },
      "id": "node/4971065306"
    },
    {
      "type": "Feature",
      "properties": {
        "@id": "node/5051773002",
        "amenity": "fast_food",
        "outdoor_seating": "yes",
        "takeaway": "yes"
      },
      "geometry": {
        "type": "Point",
        "coordinates": [
          12.4887179,
          41.8927648
        ]
      },
      "id": "node/5051773002"
    },
    {
      "type": "Feature",
      "properties": {
        "@id": "node/5124995222",
        "addr:city": "Roma",
        "addr:housenumber": "54",
        "addr:street": "Via Urbana",
        "amenity": "fast_food",
        "delivery": "yes",
        "description": "Panini (Rosette)",
        "drive_through": "no",
        "name": "Zia Rosseta",
        "outdoor_seating": "no",
        "phone": "+39 06 31052516",
        "takeaway": "yes"
      },
      "geometry": {
        "type": "Point",
        "coordinates": [
          12.4935304,
          41.8955099
        ]
      },
      "id": "node/5124995222"
    },
    {
      "type": "Feature",
      "properties": {
        "@id": "node/5431635221",
        "amenity": "fast_food",
        "cuisine": "pasta",
        "name": "Maccheroni Express"
      },
      "geometry": {
        "type": "Point",
        "coordinates": [
          12.4911927,
          41.8942626
        ]
      },
      "id": "node/5431635221"
    },
    {
      "type": "Feature",
      "properties": {
        "@id": "node/5834708406",
        "addr:city": "Roma",
        "addr:street": "Via di San Giovanni in Laterano",
        "amenity": "fast_food",
        "cuisine": "burger",
        "drive_through": "no",
        "name": "Peterland",
        "takeaway": "yes"
      },
      "geometry": {
        "type": "Point",
        "coordinates": [
          12.4956318,
          41.8895918
        ]
      },
      "id": "node/5834708406"
    },
    {
      "type": "Feature",
      "properties": {
        "@id": "node/5853362084",
        "addr:city": "Roma",
        "addr:housenumber": "286",
        "addr:postcode": "00184",
        "addr:street": "Via Cavour",
        "amenity": "fast_food",
        "name": "L'angolo del panino"
      },
      "geometry": {
        "type": "Point",
        "coordinates": [
          12.4897154,
          41.8936684
        ]
      },
      "id": "node/5853362084"
    },
    {
      "type": "Feature",
      "properties": {
        "@id": "node/5865669985",
        "addr:housenumber": "130",
        "addr:street": "Via dei Serpenti",
        "amenity": "fast_food",
        "name": "il Gelatone"
      },
      "geometry": {
        "type": "Point",
        "coordinates": [
          12.4903384,
          41.8956683
        ]
      },
      "id": "node/5865669985"
    },
    {
      "type": "Feature",
      "properties": {
        "@id": "node/6173175321",
        "addr:housenumber": "178",
        "addr:street": "Via dei Serpenti",
        "amenity": "fast_food",
        "name": "Fuorinorma"
      },
      "geometry": {
        "type": "Point",
        "coordinates": [
          12.4908261,
          41.8943085
        ]
      },
      "id": "node/6173175321"
    }
  ]
}